STARLINK-2198
1 27775C 21017BF  21325.13228448  .00004550  00000-0  30477-3 0  3257
2 27775  53.0540  67.6493 0001285  87.3961 319.1748 15.06402176    10
